NORAD_CAT_ID,OBJECT_NAME,OBJECT_TYPE,EPOCH,MEAN_MOTION,ECCENTRICITY,INCLINATION,RA_OF_ASC_NODE,ARG_OF_PERICENTER,MEAN_ANOMALY,BSTAR,MEAN_MOTION_DOT,MEAN_MOTION_DDOT,TLE_LINE0,TLE_LINE1,TLE_LINE2,SEMIMAJOR_AXIS,PERIOD,APOGEE,PERIGEE,DECAYED
49414.0,STARLINK-3146,PAYLOAD,2022-04-10 14:00:01,15.08804636,0.0002267,53.215,164.6356,25.0986,320.3109,0.002659,0.00042244,0.0,0 STARLINK-3146,1 49414U 21104G   22100.58334491  .00042244  00000-0  26590-2 0  9992,2 49414  53.2150 164.6356 0002267  25.0986 320.3109 15.08804636  3617,6917.988,95.44,541.422,538.285,0.0
49414.0,STARLINK-3146,PAYLOAD,2022-04-10 20:00:01,15.08855818,0.0002176,53.2149,163.5122,24.9486,239.1452,-0.0010055,-0.00016263,0.0,0 STARLINK-3146,1 49414U 21104G   22100.83334491 -.00016263  00000-0 -10055-2 0  9993,2 49414  53.2149 163.5122 0002176  24.9486 239.1452 15.08855818 24019,6917.831999999999,95.437,541.202,538.192,0.0
49414.0,STARLINK-3146,PAYLOAD,2022-04-10 22:00:00,15.08843621,0.0002117,53.2151,163.1377,26.0562,330.9429,0.00078844,0.00012284,0.0,0 STARLINK-3146,1 49414U 21104G   22100.91667824  .00012284  00000-0  78844-3 0  9999,2 49414  53.2151 163.1377 0002117  26.0562 330.9429 15.08843621  3619,6917.869000000002,95.437,541.1990000000002,538.27,0.0
49414.0,STARLINK-3146,PAYLOAD,2022-04-11 14:00:01,15.08815982,0.0002289,53.2154,160.1464,23.7436,356.4521,0.00059849,9.244e-05,0.0,0 STARLINK-3146,1 49414U 21104G   22101.58334491  .00009244  00000-0  59849-3 0  9990,2 49414  53.2154 160.1464 0002289  23.7436 356.4521 15.08815982  3604,6917.954000000002,95.439,541.4019999999998,538.235,0.0
49414.0,STARLINK-3146,PAYLOAD,2022-04-11 22:00:00,15.08805006,0.0002128,53.2154,158.6484,27.1148,4.6586,0.00013106,1.796e-05,0.0,0 STARLINK-3146,1 49414U 21104G   22101.91667824  .00001796  00000-0  13106-3 0  9996,2 49414  53.2154 158.6484 0002128  27.1148   4.6586 15.08805006  3595,6917.986999999999,95.44,541.325,538.38,0.0
49414.0,STARLINK-3146,PAYLOAD,2022-04-12 04:00:00,15.08807926,0.0002077,53.2156,157.5259,29.8146,280.6185,0.0013581,0.00021373,0.0,0 STARLINK-3146,1 49414U 21104G   22102.16667824  .00021373  00000-0  13581-2 0  9993,2 49414  53.2156 157.5259 0002077  29.8146 280.6185 15.08807926 24211,6917.978,95.44,541.28,538.4069999999998,0.0
49414.0,STARLINK-3146,PAYLOAD,2022-04-12 14:00:01,15.08791401,0.0002338,53.2154,155.6575,26.1799,28.7096,0.0029655,0.00047162,0.0,0 STARLINK-3146,1 49414U 21104G   22102.58334491  .00047162  00000-0  29655-2 0  9993,2 49414  53.2154 155.6575 0002338  26.1799  28.7096 15.08791401  3605,6918.029,95.441,541.511,538.2769999999998,0.0
49414.0,STARLINK-3146,PAYLOAD,2022-04-12 20:00:01,15.08831796,0.000222,53.2152,154.534,27.5075,306.0465,-0.001653,-0.00026494,0.0,0 STARLINK-3146,1 49414U 21104G   22102.83334491 -.00026494  00000-0 -16530-2 0  9996,2 49414  53.2152 154.5340 0002220  27.5075 306.0465 15.08831796 24318,6917.905,95.438,541.306,538.235,0.0
49414.0,STARLINK-3146,PAYLOAD,2022-04-12 22:00:00,15.08811984,0.000213,53.2154,154.1595,28.3414,38.113,0.0011936,0.00018745,0.0,0 STARLINK-3146,1 49414U 21104G   22102.91667824  .00018745  00000-0  11936-2 0  9997,2 49414  53.2154 154.1595 0002130  28.3414  38.1130 15.08811984  3578,6917.965999999999,95.439,541.305,538.357,0.0
49414.0,STARLINK-3146,PAYLOAD,2022-04-13 04:00:00,15.0883055,0.00021,53.2155,153.0371,30.906,314.2201,0.00085381,0.00013323,0.0,0 STARLINK-3146,1 49414U 21104G   22103.16667824  .00013323  00000-0  85381-3 0  9998,2 49414  53.2155 153.0371 0002100  30.9060 314.2201 15.08830550 24369,6917.909000000002,95.438,541.227,538.322,0.0
49414.0,STARLINK-3146,PAYLOAD,2022-04-13 14:00:03,15.08811198,0.0002362,53.2149,151.1685,27.2467,62.4924,0.0030892,0.00049182,0.0,0 STARLINK-3146,1 49414U 21104G   22103.58336806  .00049182  00000-0  30892-2 0  9995,2 49414  53.2149 151.1685 0002362  27.2467  62.4924 15.08811198  3626,6917.968000000003,95.439,541.467,538.1990000000002,0.0
49414.0,STARLINK-3146,PAYLOAD,2022-04-13 22:00:00,15.08829389,0.0002154,53.2147,149.6704,30.0396,71.1664,0.0016940999999999,0.00026769,0.0,0 STARLINK-3146,1 49414U 21104G   22103.91667824  .00026769  00000-0  16941-2 0  9994,2 49414  53.2147 149.6704 0002154  30.0396  71.1664 15.08829389  3607,6917.913000000001,95.438,541.268,538.288,0.0
49414.0,STARLINK-3146,PAYLOAD,2022-04-14 06:00:00,15.08861872,0.0002219,53.2146,148.1746,31.7446,81.0443,-0.0017486,-0.00028027,0.0,0 STARLINK-3146,1 49414U 21104G   22104.25001157 -.00028027  00000-0 -17486-2 0  9999,2 49414  53.2146 148.1746 0002219  31.7446  81.0443 15.08861872 24535,6917.814,95.436,541.214,538.143,0.0
49414.0,STARLINK-3146,PAYLOAD,2022-04-14 14:00:01,15.08827269,0.0002414,53.2141,146.6793,28.6648,95.7379,0.0028147,0.00044778,0.0,0 STARLINK-3146,1 49414U 21104G   22104.58334491  .00044778  00000-0  28147-2 0  9990,2 49414  53.2141 146.6793 0002414  28.6648  95.7379 15.08827269  3608,6917.919,95.438,541.4540000000002,538.114,0.0
49414.0,STARLINK-3146,PAYLOAD,2022-04-14 20:00:01,15.08859412,0.0002283,53.214,145.5555,31.2708,11.833,-0.00080798,-0.00013132,0.0,0 STARLINK-3146,1 49414U 21104G   22104.83334491 -.00013132  00000-0 -80798-3 0  9991,2 49414  53.2140 145.5555 0002283  31.2708  11.8330 15.08859412 24628,6917.821,95.436,541.265,538.107,0.0
49414.0,STARLINK-3146,PAYLOAD,2022-04-14 22:00:00,15.08839515,0.0002218,53.2139,145.1811,31.5086,104.5049,0.0019135,0.00030297,0.0,0 STARLINK-3146,1 49414U 21104G   22104.91667824  .00030297  00000-0  19135-2 0  9994,2 49414  53.2139 145.1811 0002218  31.5086 104.5049 15.08839515  3601,6917.882,95.438,541.281,538.212,0.0
49414.0,STARLINK-3146,PAYLOAD,2022-04-15 04:00:00,15.08875151,0.000225,53.214,144.0588,34.0818,20.6368,5.0881e-05,5.22e-06,0.0,0 STARLINK-3146,1 49414U 21104G   22105.16667824  .00000522  00000-0  50881-4 0  9995,2 49414  53.2140 144.0588 0002250  34.0818  20.6368 15.08875151 24677,6917.773,95.435,541.194,538.081,0.0
49414.0,STARLINK-3146,PAYLOAD,2022-04-15 14:00:01,15.08876601,0.0002477,53.2135,142.1896,29.3223,129.9499,-3.705e-05,-8.79e-06,0.0,0 STARLINK-3146,1 49414U 21104G   22105.58334491 -.00000879  00000-0 -37050-4 0  9992,2 49414  53.2135 142.1896 0002477  29.3223 129.9499 15.08876601  3609,6917.769,95.435,541.347,537.92,0.0
49414.0,STARLINK-3146,PAYLOAD,2022-04-15 22:00:00,15.0884505,0.0002278,53.2135,140.6911,30.9841,139.9255,0.00065219,0.00010108,0.0,0 STARLINK-3146,1 49414U 21104G   22105.91667824  .00010108  00000-0  65219-3 0  9999,2 49414  53.2135 140.6911 0002278  30.9841 139.9255 15.08845050  3563,6917.865,95.437,541.306,538.154,0.0
49414.0,STARLINK-3146,PAYLOAD,2022-04-16 04:00:00,15.0887489,0.0002339,53.2136,139.569,33.5354,56.0732,-0.0045171,-0.00071536,0.0,0 STARLINK-3146,1 49414U 21104G   22106.16667824 -.00071536  00000-0 -45171-2 0  9995,2 49414  53.2136 139.5690 0002339  33.5354  56.0732 15.08874890 24826,6917.774,95.435,541.257,538.021,0.0
49414.0,STARLINK-3146,PAYLOAD,2022-04-16 14:00:01,15.08791747,0.0002552,53.2133,137.6997,29.1369,164.965,0.0021781999999999,0.00034503,0.0,0 STARLINK-3146,1 49414U 21104G   22106.58334491  .00034503  00000-0  21782-2 0  9995,2 49414  53.2133 137.6997 0002552  29.1369 164.9650 15.08791747  3561,6918.028,95.441,541.658,538.127,0.0
49414.0,STARLINK-3146,PAYLOAD,2022-04-16 20:00:01,15.08807538,0.0002394,53.2136,136.5759,31.5237,81.2433,0.000108,1.429e-05,0.0,0 STARLINK-3146,1 49414U 21104G   22106.83334491  .00001429  00000-0  10800-3 0  9994,2 49414  53.2136 136.5759 0002394  31.5237  81.2433 15.08807538 24922,6917.98,95.44,541.501,538.188,0.0
49414.0,STARLINK-3146,PAYLOAD,2022-04-16 22:00:01,15.08790586,0.0002371,53.2134,136.2014,31.9678,173.7573,0.0025126,0.00039873,0.0,0 STARLINK-3146,1 49414U 21104G   22106.91668981  .00039873  00000-0  25126-2 0  9997,2 49414  53.2134 136.2014 0002371  31.9678 173.7573 15.08790586  3595,6918.031,95.441,541.5369999999998,538.256,0.0
49414.0,STARLINK-3146,PAYLOAD,2022-04-17 14:00:01,15.08812536,0.0002658,53.2134,133.2101,30.9036,197.8792,0.0015937,0.00025148,0.0,0 STARLINK-3146,1 49414U 21104G   22107.58334491  .00025148  00000-0  15937-2 0  9996,2 49414  53.2134 133.2101 0002658  30.9036 197.8792 15.08812536  3561,6917.964,95.439,541.668,537.991,0.0
49414.0,STARLINK-3146,PAYLOAD,2022-04-17 22:00:00,15.08803981,0.0002479,53.2138,131.7117,34.0005,206.3628,0.0027876,0.00044313,0.0,0 STARLINK-3146,1 49414U 21104G   22107.91667824  .00044313  00000-0  27876-2 0  9992,2 49414  53.2138 131.7117 0002479  34.0005 206.3628 15.08803981  3565,6917.99,95.44,541.57,538.141,0.0
49414.0,STARLINK-3146,PAYLOAD,2022-04-18 06:00:00,15.08843376,0.0002619,53.214,130.2164,34.5621,217.3715,-0.0012943,-0.00020831,0.0,0 STARLINK-3146,1 49414U 21104G   22108.25001157 -.00020831  00000-0 -12943-2 0  9991,2 49414  53.2140 130.2164 0002619  34.5621 217.3715 15.08843376 25137,6917.87,95.437,541.547,537.923,0.0
49414.0,STARLINK-3146,PAYLOAD,2022-04-18 14:00:01,15.08833288,0.0002733,53.2138,128.7205,32.6247,230.8948,0.00073761,0.00011469,0.0,0 STARLINK-3146,1 49414U 21104G   22108.58334491  .00011469  00000-0  73761-3 0  9998,2 49414  53.2138 128.7205 0002733  32.6247 230.8948 15.08833288  3609,6917.901,95.438,541.6569999999998,537.875,0.0
49414.0,STARLINK-3146,PAYLOAD,2022-04-18 20:00:01,15.0883063,0.0002558,53.2142,127.5966,35.0751,147.1444,0.0011617,0.00018244,0.0,0 STARLINK-3146,1 49414U 21104G   22108.83334491  .00018244  00000-0  11617-2 0  9995,2 49414  53.2142 127.5966 0002558  35.0751 147.1444 15.08830630 25228,6917.909000000002,95.438,541.544,538.004,0.0
49414.0,STARLINK-3146,PAYLOAD,2022-04-18 22:00:00,15.08817925,0.0002541,53.2143,127.2222,36.1825,238.9386,0.0029873,0.00047548,0.0,0 STARLINK-3146,1 49414U 21104G   22108.91667824  .00047548  00000-0  29873-2 0  9995,2 49414  53.2143 127.2222 0002541  36.1825 238.9386 15.08817925  3566,6917.948,95.439,541.571,538.055,0.0
